ORBCOMM FM37            
1 33064U 08031E   24117.54693374  .00003684  00000+0  55455-3 0  9991
2 33064  48.4380 159.1770 0005727  24.5184 129.7150 14.76322150852416
ORBCOMM FM40            
1 33065U 08031F   24117.82904685  .00004242  00000+0  61532-3 0  9997
2 33065  48.4402 147.3474 0007003  36.2221 133.8128 14.77619883852495
VESSELSAT 1             
1 37840U 11058C   24117.28835407  .00000580  00000+0  17219-3 0  9994
2 37840  19.9611  96.1321 0013545 281.4363  78.4520 14.11144069647349
ORBCOMM FM109           
1 40086U 14040A   24117.85666163  .00002464  00000+0  58525-3 0  9996
2 40086  47.0010 180.2092 0002443 228.1673 131.9004 14.56547820520339
ORBCOMM FM107           
1 40087U 14040B   24117.54801064  .00002399  00000+0  57067-3 0  9991
2 40087  47.0028 182.6274 0001463 211.1082 148.9716 14.56552753520366
ORBCOMM FM106           
1 40088U 14040C   24117.50269693  .00003445  00000+0  64015-3 0  9998
2 40088  47.0616  37.0075 0018574 292.2759  67.6161 14.66950530522240
ORBCOMM FM111           
1 40089U 14040D   24117.80648521  .00005270  00000+0  68249-3 0  9994
2 40089  47.0034 298.1841 0032563   3.0716 357.0374 14.81639132528383
ORBCOMM FM104           
1 40090U 14040E   24117.64211783  .00001897  00000+0  47339-3 0  9992
2 40090  47.0034 210.9421 0016120 103.5462 256.7219 14.55081387519923
